#dP2018  3  5  0  0  0.00000000      96 __u+U IGS08 FIT  IAC
## 1991  86400.00000000   900.00000000 58182 0.0000000000000
+   88   C01C02C03C04C05C06C07C08C09C10C11C12C13C14E01E02E03
+        E04E05E07E08E09E11E12E14E18E19E24E26E30G01G02G03G04
+        G05G06G07G08G09G10G11G12G13G14G15G16G17G19G20G21G22
+        G23G24G25G26G27G28G29G30G31G32J01J02J03R01R02R03R04
+        R05R06R07R08R09R10R11R13R14R15R16R17R18R19R20R21R22
+        R23R24R26  0  0  0  0  0  0  0  0  0  0  0  0  0  0
++        12 11 13 11 12  8  8  8  7  8  8  8  0  8  7  7  7
++         7  7  7  7  7  7  7  7  7  7  7  7  7  3  3  3  4
++         3  3  3  3  3  3  3  3  3  3  3  3  3  3  3  3  3
++         3  3  3  3  3  3  3  3  3  3  9 11 13  7  5  5  5
++         6  5  5  5  5  5  5  5  5  5  5  5  5  5  5  5  5
++         5  5  8  0  0  0  0  0  0  0  0  0  0  0  0  0  0
%c M  cc GPS ccc cccc cccc cccc cccc ccccc ccccc ccccc ccccc
%c cc cc ccc ccc cccc cccc cccc cccc ccccc ccccc ccccc ccccc
%f  1.2500000  1.025000000  0.00000000000  0.000000000000000
%f  0.0000000  0.000000000  0.00000000000  0.000000000000000
%i    0    0    0    0      0      0      0      0         0
%i    0    0    0    0      0      0      0      0         0
/* INFORMATION & ANALYSIS CENTER (IAC)            FINAL DATA
/* S/V CLOCKS ARE ALIGNED TO GPS & GLONASS TIME RESPECTIVELY
/* USING THE BROADCAST EPHEMERIS                            
/* PCV:IGS14_1984 OL/AL:FES2004  NONE     YN ORB:CoN CLK:CoN
*  2018 03 05  4 15  0.00000000
PC01 -32309.462009  27094.459842    198.749442    443.332323
PC02   4389.107337  41916.601779   -908.524394   -269.376888
PC03 -14725.301766  39463.869660  -1007.863249     23.987119
PC04 -39637.188221  14370.877564   -164.244171   -142.821175
PC05  21907.460284  35990.582779  -1073.008037   -161.464124
PC06 -22611.149113  31229.077877  16937.923289   -679.378244
PC07  -9991.685221  36105.687551  19870.295007   -333.542942
PC08 -12369.875369  18758.478383 -35605.426361    210.734843
PC09 -10627.212509  30277.692606  27345.698385   -345.723508
PC10   -245.914545  41463.295232   8699.023732    -60.022615
PC11  27832.334037    302.226700  -1299.743826   -415.237936
PC12  17881.202202  11454.100432 -17997.758843    388.760308
PC13   4719.968893  26100.496112 -32706.833813 999999.999999
PC14  18130.468718  -2476.074956  21139.070317    261.729947
PE01  -8783.799717 -27909.683581   4489.047285   -290.717943
PE02   8801.391039  27891.247401  -4519.763193      6.532051
PE03   3590.952244  18486.243864  22839.877368     -6.009835
PE04 -19942.184673  -2925.477807 -21673.717734     12.072180
PE05 -14909.203672  23257.008226  10626.413598    310.287027
PE07  24655.293265 -14408.154423   7789.026580     73.624097
PE08  19865.840882   2662.288646  21781.670649   6630.232818
PE09 -24488.662456  14660.237244  -7860.857930   6857.836924
PE11 -24458.489813   3634.659310 -16249.699929   1845.470722
PE12 -27721.360210 -10192.528775   1782.622081   3641.519953
PE14 -23609.286495  11984.600397  -7823.321193   6621.052982
PE18  29192.005321  -1888.587648  -4995.886175   6382.239936
PE19  -1712.619764 -19422.557151 -22272.494670     20.008821
PE24 -14463.189336   8668.130544  24312.266822   6830.156229
PE26   7265.690502 -15087.433937  24418.053421   6201.729779
PE30  16463.766401  13570.813535 -20522.024003   6028.316456
PG01  21825.867940  12324.842957   9080.525270    -32.265947
PG02 -11185.522822 -21156.793495  12355.252513    183.284598
PG03  14032.641311   6282.131362  21643.058469     21.867020
PG04  -8229.646196  24974.419007   2120.516439     42.033113
PG05  -3907.513233 -23186.702440 -12246.926657    -12.853224
PG06    860.555390 -17790.452771  19729.961349    413.437068
PG07  17856.576926  -1633.128403 -19530.169911    227.815391
PG08  18368.377927   7137.676023 -17821.545114    -93.289878
PG09  25258.789769  -8216.818661   -547.779158    504.859751
PG10 -10900.771101  22894.937952  -7600.172542    166.844768
PG11  24928.760172   8922.180909    -13.621007   -737.069822
PG12 -12256.729279  -8830.265122  21689.983428    347.077065
PG13  -9278.252743 -13202.139993 -21212.454313    -95.581383
PG14  -6846.230200  15973.517222  20321.132017    -94.743984
PG15 -19549.234133  -6285.062936 -17254.750355   -356.651816
PG16   1483.159325  22970.063297 -13008.681060     30.980087
PG17  15694.413668 -14720.109608  15871.927555   -118.351007
PG19   9387.102449 -15141.826599  19484.719261   -453.013213
PG20 -15075.250726  -6342.101004 -21076.556993    502.375996
PG21 -15800.374202   5407.036962 -19858.590813   -423.352816
PG22  12329.698360  13698.259547  19365.159783   -312.224201
PG23  24349.585924   1036.396350  11321.729848   -218.744944
PG24 -22080.504288 -13863.194934   5696.218766    -46.853116
PG25 -15674.223460   6342.341979  20247.555136   -548.420806
PG26  -4169.313761  26059.762491  -2267.110016   -229.059700
PG27   5114.920352  14005.621525 -22048.276353    368.835271
PG28  13468.309169 -20553.130190  -9507.234210    694.191761
PG29 -26074.707421   4025.684743   2962.089674    487.239899
PG30  11728.989617 -10245.934048 -21517.086689     97.953632
PG31   -484.239085  18352.017056  19077.972731    137.614194
PG32 -15481.309790  15634.682142  14848.311180   -530.060140
PJ01 -22444.534154  32940.106709  -9132.846776    -76.294704
PJ02 -24154.734881  22014.894067  31252.207477     -0.036675
PJ03 -35279.876618  21248.517720  -4448.086469    -16.298137
PR01   8710.064932   6877.863001  22967.225561     22.916074
PR02  17786.003247 -10922.944072  14732.981823    298.257583
PR03  15176.202854 -20420.115563  -2077.716758    125.829214
PR04   3324.596438 -17795.218480 -17964.050747    252.190227
PR05  -9907.001750  -5310.630154 -22907.002924   -258.849999
PR06 -17787.788838  11773.041101 -13978.039015    128.164192
PR07 -14941.039384  20492.272451   2601.631470    -31.665455
PR08  -3803.596303  18088.824664  17626.578779     38.305350
PR09 -11685.946580    -73.142828  22678.073175     44.428810
PR10  -2912.437270  16975.926085  18821.608121     19.676921
PR11   7265.629929  24219.207572   3519.331304    -23.247615
PR13  11266.983265   -610.050725 -22898.366946     -8.102555
PR14   3250.802970 -16780.071220 -18925.021345     25.180598
PR15  -5439.427143 -23935.958714  -7132.209110     -7.131048
PR16 -13503.191968 -17443.916436  12885.497512     87.053499
PR17  13071.493386  -7525.021665  20577.397740    114.069926
PR18  -5135.035312 -11195.513062  22346.166213    187.044162
PR19 -20862.268623  -9094.972983  11521.763159    -46.400948
PR20 -24407.295524  -1143.882814  -7213.221371   -329.459354
PR21 -12851.059746   7546.366773 -20699.687943     26.653204
PR22   7351.630499  11226.808737 -21711.912629    -23.824169
PR23  22907.394999   7580.385182  -8287.399200    139.818517
PR24  24261.040167    352.816056   7885.566695   -163.247101
PR26 -24550.924471   -821.028840  -6890.784695      3.160988
EOF
